NORAD_CAT_ID,OBJECT_NAME,OBJECT_TYPE,EPOCH,MEAN_MOTION,ECCENTRICITY,INCLINATION,RA_OF_ASC_NODE,ARG_OF_PERICENTER,MEAN_ANOMALY,BSTAR,MEAN_MOTION_DOT,MEAN_MOTION_DDOT,TLE_LINE0,TLE_LINE1,TLE_LINE2,SEMIMAJOR_AXIS,PERIOD,APOGEE,PERIGEE,DECAYED
52098.0,STARLINK-3665,PAYLOAD,2023-07-28 08:31:37,15.08834749,7.38e-05,53.2165,57.781,6.8278,353.2724,5.642e-06,-1.98e-06,0.0,0 STARLINK-3665,1 52098U 22029L   23209.35530091 -.00000198  00000-0  56420-5 0  9992,2 52098  53.2165  57.7810 0000738   6.8278 353.2724 15.08834749 76430,6917.896,95.438,540.272,539.251,0.0
52098.0,STARLINK-3665,PAYLOAD,2023-07-28 16:28:33,15.08860426,0.0002312,53.2134,56.2955,106.8668,253.2578,-0.00034454,-5.771e-05,0.0,0 STARLINK-3665,1 52098U 22029L   23209.68650033 -.00005771  00000-0 -34454-3 0  9991,2 52098  53.2134  56.2955 0002312 106.8668 253.2578 15.08860426 76486,6917.818,95.436,541.282,538.084,0.0
52098.0,STARLINK-3665,PAYLOAD,2023-07-28 22:50:04,15.08872214,7.47e-05,53.2168,55.1077,100.9504,259.1572,-0.00027384,-4.647e-05,0.0,0 STARLINK-3665,1 52098U 22029L   23209.95144576 -.00004647  00000-0 -27384-3 0  9996,2 52098  53.2168  55.1077 0000747 100.9504 259.1572 15.08872214 76522,6917.782,95.436,540.164,539.13,0.0
52098.0,STARLINK-3665,PAYLOAD,2023-07-29 08:22:24,15.08840497,0.0001297,53.2163,53.3251,87.1277,272.9863,0.00014444,2.012e-05,0.0,0 STARLINK-3665,1 52098U 22029L   23210.34889531  .00002012  00000-0  14444-3 0  9993,2 52098  53.2163  53.3251 0001297  87.1277 272.9863 15.08840497 76585,6917.879,95.438,540.641,538.847,0.0
52098.0,STARLINK-3665,PAYLOAD,2023-07-30 08:13:11,15.08839459,0.0001006,53.217,48.8634,96.199,263.9117,0.00011097,1.479e-05,0.0,0 STARLINK-3665,1 52098U 22029L   23211.34249852  .00001479  00000-0  11097-3 0  9997,2 52098  53.2170  48.8634 0001006  96.1990 263.9117 15.08839459 76732,6917.882,95.438,540.443,539.051,0.0
52098.0,STARLINK-3665,PAYLOAD,2023-07-31 17:36:17,15.08845853,9.93e-05,53.2171,42.6185,84.5511,275.5595,7.7971e-05,9.54e-06,0.0,0 STARLINK-3665,1 52098U 22029L   23212.73353446  .00000954  00000-0  77971-4 0  9997,2 52098  53.2171  42.6185 0000993  84.5511 275.5595 15.08845853 76947,6917.862,95.437,540.414,539.041,0.0
52098.0,STARLINK-3665,PAYLOAD,2023-07-31 22:22:26,15.08852973,9.91e-05,53.2172,41.7258,94.3753,265.7352,8.7611e-05,1.107e-05,0.0,0 STARLINK-3665,1 52098U 22029L   23212.93224869  .00001107  00000-0  87611-4 0  9998,2 52098  53.2172  41.7258 0000991  94.3753 265.7352 15.08852973 76970,6917.841,95.437,540.391,539.02,0.0
52098.0,STARLINK-3665,PAYLOAD,2023-08-01 17:27:04,15.08836415,0.0001082,53.2178,38.1543,121.4468,238.663,6.4625e-05,7.41e-06,0.0,0 STARLINK-3665,1 52098U 22029L   23213.72713889  .00000741  00000-0  64625-4 0  9994,2 52098  53.2178  38.1543 0001082 121.4468 238.6630 15.08836415 77095,6917.891,95.438,540.505,539.008,0.0
52098.0,STARLINK-3665,PAYLOAD,2023-08-02 18:53:14,15.08847366,0.0001077,53.2167,33.4,76.0504,284.0608,0.00011319,1.514e-05,0.0,0 STARLINK-3665,1 52098U 22029L   23214.78697561  .00001514  00000-0  11319-3 0  9999,2 52098  53.2167  33.4000 0001077  76.0504 284.0608 15.08847366 77254,6917.858,95.437,540.468,538.978,0.0
52098.0,STARLINK-3665,PAYLOAD,2023-08-03 10:47:06,15.08840322,0.00011,53.2166,30.4271,75.7843,284.3272,0.00012344,1.677e-05,0.0,0 STARLINK-3665,1 52098U 22029L   23215.44937929  .00001677  00000-0  12344-3 0  9997,2 52098  53.2166  30.4271 0001100  75.7843 284.3272 15.08840322 77355,6917.879,95.438,540.505,538.983,0.0
52098.0,STARLINK-3665,PAYLOAD,2023-08-04 16:59:26,15.08832287,0.0001108,53.218,24.7785,69.2396,290.8715,3.0793e-05,2.02e-06,0.0,0 STARLINK-3665,1 52098U 22029L   23216.70795009  .00000202  00000-0  30793-4 0  9990,2 52098  53.2180  24.7785 0001108  69.2396 290.8715 15.08832287 77542,6917.904,95.438,540.535,539.002,0.0
52098.0,STARLINK-3665,PAYLOAD,2023-08-05 18:25:35,15.08860862,0.0001142,53.2175,20.0196,77.1912,282.9208,0.00039278,5.972e-05,0.0,0 STARLINK-3665,1 52098U 22029L   23217.76777234  .00005972  00000-0  39278-3 0  9992,2 52098  53.2175  20.0196 0001142  77.1912 282.9208 15.08860862 77708,6917.817,95.436,540.472,538.892,0.0
52098.0,STARLINK-3665,PAYLOAD,2023-08-06 10:19:28,15.08826192,0.0001291,53.2176,17.0415,115.0697,245.0429,-0.00013576,-2.447e-05,0.0,0 STARLINK-3665,1 52098U 22029L   23218.43018876 -.00002447  00000-0 -13576-3 0  9996,2 52098  53.2176  17.0415 0001291 115.0697 245.0429 15.08826192 77800,6917.923,95.438,540.681,538.894,0.0
52098.0,STARLINK-3665,PAYLOAD,2023-08-07 16:31:49,15.08841454,0.0001313,53.2172,11.3964,55.7251,304.3866,0.0011774,0.00018501,0.0,0 STARLINK-3665,1 52098U 22029L   23219.68876504  .00018501  00000-0  11774-2 0  9997,2 52098  53.2172  11.3964 0001313  55.7251 304.3866 15.08841454 77995,6917.876,95.437,540.649,538.833,0.0
52098.0,STARLINK-3665,PAYLOAD,2023-08-08 19:33:21,15.08882941,0.0001363,53.2174,6.3408,56.0154,304.0967,0.0012339,0.00019427,0.0,0 STARLINK-3665,1 52098U 22029L   23220.81482834  .00019427  00000-0  12339-2 0  9999,2 52098  53.2174   6.3408 0001363  56.0154 304.0967 15.08882941 78160,6917.749,95.435,540.557,538.671,0.0
52098.0,STARLINK-3665,PAYLOAD,2023-08-09 05:05:39,15.0886545,0.00021,53.2146,4.5588,64.449,295.6719,0.00035072,5.302e-05,0.0,0 STARLINK-3665,1 52098U 22029L   23221.21226837  .00005302  00000-0  35072-3 0  9990,2 52098  53.2146   4.5588 0002100  64.4490 295.6719 15.08865450 78227,6917.803,95.436,541.12,538.215,0.0
52098.0,STARLINK-3665,PAYLOAD,2023-08-09 16:13:21,15.0884913,0.0001194,53.2176,2.4751,63.9855,296.126,8.5212e-05,1.069e-05,0.0,0 STARLINK-3665,1 52098U 22029L   23221.67594734  .00001069  00000-0  85212-4 0  9992,2 52098  53.2176   2.4751 0001194  63.9855 296.1260 15.08849130 78291,6917.852,95.437,540.543,538.891,0.0
52098.0,STARLINK-3665,PAYLOAD,2023-08-10 08:07:13,15.08842344,0.0001183,53.2177,359.5025,66.8707,293.241,0.0002913,4.351e-05,0.0,0 STARLINK-3665,1 52098U 22029L   23222.33834897  .00004351  00000-0  29130-3 0  9996,2 52098  53.2177 359.5025 0001183  66.8707 293.2410 15.08842344 78394,6917.873,95.437,540.557,538.92,0.0
52098.0,STARLINK-3665,PAYLOAD,2023-08-11 09:33:23,15.08837842,0.0001186,53.2185,354.7463,73.2921,286.8201,3.3515e-05,2.46e-06,0.0,0 STARLINK-3665,1 52098U 22029L   23223.39818874  .00000246  00000-0  33515-4 0  9992,2 52098  53.2185 354.7463 0001186  73.2921 286.8201 15.08837842 78550,6917.887,95.438,540.572,538.932,0.0
52098.0,STARLINK-3665,PAYLOAD,2023-08-12 17:21:05,15.08847733,0.0001006,53.2172,348.7977,83.5336,276.5771,0.00019059,2.747e-05,0.0,0 STARLINK-3665,1 52098U 22029L   23224.72298472  .00002747  00000-0  19059-3 0  9990,2 52098  53.2172 348.7977 0001006  83.5336 276.5771 15.08847733 78754,6917.857,95.437,540.418,539.026,0.0
52098.0,STARLINK-3665,PAYLOAD,2023-08-13 01:18:02,15.0883853,0.0001636,53.2172,347.3077,76.8332,283.2842,3.3054e-05,2.38e-06,0.0,0 STARLINK-3665,1 52098U 22029L   23225.05419002  .00000238  00000-0  33054-4 0  9996,2 52098  53.2172 347.3077 0001636  76.8332 283.2842 15.08838530 78805,6917.885,95.438,540.882,538.618,0.0
52098.0,STARLINK-3665,PAYLOAD,2023-08-14 07:30:21,15.08838884,0.0001166,53.2174,341.6616,85.4746,274.638,7.9825e-05,9.83e-06,0.0,0 STARLINK-3665,1 52098U 22029L   23226.31275271  .00000983  00000-0  79825-4 0  9997,2 52098  53.2174 341.6616 0001166  85.4746 274.6380 15.08838884 78999,6917.884,95.438,540.555,538.942,0.0
52098.0,STARLINK-3665,PAYLOAD,2023-08-15 16:53:27,15.08849774,9.5e-05,53.2176,335.417,85.6641,274.446,0.00032169,4.837e-05,0.0,0 STARLINK-3665,1 52098U 22029L   23227.70378832  .00004837  00000-0  32169-3 0  9999,2 52098  53.2176 335.4170 0000950  85.6641 274.4460 15.08849774 79205,6917.851,95.437,540.373,539.058,0.0
52098.0,STARLINK-3665,PAYLOAD,2023-08-16 00:50:23,15.08843396,8.39e-05,53.2189,333.9292,92.0086,268.1003,0.00012556,1.711e-05,0.0,0 STARLINK-3665,1 52098U 22029L   23228.03498976  .00001711  00000-0  12556-3 0  9994,2 52098  53.2189 333.9292 0000839  92.0086 268.1003 15.08843396 79250,6917.87,95.437,540.315,539.155,0.0
52098.0,STARLINK-3665,PAYLOAD,2023-08-17 10:13:29,15.08843723,0.0001418,53.2176,327.6853,77.3428,282.7722,1.1308e-05,-1.08e-06,0.0,0 STARLINK-3665,1 52098U 22029L   23229.42603171 -.00000108  00000-0  11308-4 0  9998,2 52098  53.2176 327.6853 0001418  77.3428 282.7722 15.08843723 79466,6917.869,95.437,540.715,538.753,0.0
52098.0,STARLINK-3665,PAYLOAD,2023-08-18 10:04:16,15.08833183,0.00012,53.2173,323.2255,93.9157,266.1972,7.6977e-06,-1.65e-06,0.0,0 STARLINK-3665,1 52098U 22029L   23230.41963723 -.00000165  00000-0  76977-5 0  9998,2 52098  53.2173 323.2255 0001200  93.9157 266.1972 15.08833183 79612,6917.901,95.438,540.596,538.936,0.0
52098.0,STARLINK-3665,PAYLOAD,2023-08-19 09:55:03,15.08842147,0.0001118,53.2161,318.7652,82.0669,278.045,0.00015267,2.143e-05,0.0,0 STARLINK-3665,1 52098U 22029L   23231.41323555  .00002143  00000-0  15267-3 0  9992,2 52098  53.2161 318.7652 0001118  82.0669 278.0450 15.08842147 79763,6917.874,95.437,540.512,538.965,0.0
52098.0,STARLINK-3665,PAYLOAD,2023-08-19 13:05:49,15.08850776,0.0001068,53.2158,318.1707,82.9225,277.1889,2.1275e-05,5.1e-07,0.0,0 STARLINK-3665,1 52098U 22029L   23231.54571094  .00000051  00000-0  21275-4 0  9992,2 52098  53.2158 318.1707 0001068  82.9225 277.1889 15.08850776 79780,6917.847,95.437,540.451,538.974,0.0
52098.0,STARLINK-3665,PAYLOAD,2023-08-20 11:21:14,15.08835744,0.0001152,53.2153,314.0089,88.4181,271.6944,6.4471e-05,7.38e-06,0.0,0 STARLINK-3665,1 52098U 22029L   23232.47308042  .00000738  00000-0  64471-4 0  9993,2 52098  53.2153 314.0089 0001152  88.4181 271.6944 15.08835744 79924,6917.893,95.438,540.555,538.961,0.0
52098.0,STARLINK-3665,PAYLOAD,2023-08-21 12:47:23,15.08845773,0.0001237,53.2166,309.2481,77.701,282.412,9.4409e-05,1.215e-05,0.0,0 STARLINK-3665,1 52098U 22029L   23233.53291616  .00001215  00000-0  94409-4 0  9994,2 52098  53.2166 309.2481 0001237  77.7010 282.4120 15.08845773 80084,6917.863,95.437,540.583,538.872,0.0
